filename,label,confidence,keep,gain_r,gain_g,gain_b,exposure,acq_ts,acq_dt,ref_dt,tle_age,lat,lng,h,tle_ref_line1,tle_ref_line2
img_msec_1694296017822_2,bad,0.84971799999999997,False,8,8,8,2,1694296017822,2023/9/9 21:46:58,2023/9/8 19:23:25,1.0996828505594749,-31.786832963214749,132.24922361567008,466170.125,1 44878U 19092F   23251.80793083  .00028436  00000+0  74212-3 0  9994,2 44878  97.4735  81.8860 0008002 187.4444 172.6683 15.38746503206633
img_msec_1694296032861_2,bad,0.84971799999999997,False,8,8,8,2,1694296032861,2023/9/9 21:47:13,2023/9/8 19:23:25,1.0998569130533724,-30.836678517585106,132.01512571205706,465849.71875,1 44878U 19092F   23251.80793083  .00028436  00000+0  74212-3 0  9994,2 44878  97.4735  81.8860 0008002 187.4444 172.6683 15.38746503206633
img_msec_1694296047183_2,bad,0.84971799999999997,False,8,8,8,2,1694296047183,2023/9/9 21:47:27,2023/9/8 19:23:25,1.1000226769392611,-29.931599905382964,131.79531656418769,465546.71875,1 44878U 19092F   23251.80793083  .00028436  00000+0  74212-3 0  9994,2 44878  97.4735  81.8860 0008002 187.4444 172.6683 15.38746503206633
img_msec_1694296061341_2,bad,0.84971799999999997,False,8,8,8,2,1694296061341,2023/9/9 21:47:41,2023/9/8 19:23:25,1.1001865426806035,-29.036677784476627,131.58086228462764,465249.53125,1 44878U 19092F   23251.80793083  .00028436  00000+0  74212-3 0  9994,2 44878  97.4735  81.8860 0008002 187.4444 172.6683 15.38746503206633
img_msec_1694296079181_2,earth,0.50160700000000003,True,8,8,8,2,1694296079181,2023/9/9 21:47:59,2023/9/8 19:23:25,1.1003930241640774,-27.908736929846135,131.31441660510544,464878.78125,1 44878U 19092F   23251.80793083  .00028436  00000+0  74212-3 0  9994,2 44878  97.4735  81.8860 0008002 187.4444 172.6683 15.38746503206633
img_msec_1694296161981_2,bad,0.475997,False,8,8,8,2,1694296161981,2023/9/9 21:49:22,2023/9/8 19:23:25,1.1013513575016987,-22.670089411925783,130.12560851968638,463225.9375,1 44878U 19092F   23251.80793083  .00028436  00000+0  74212-3 0  9994,2 44878  97.4735  81.8860 0008002 187.4444 172.6683 15.38746503206633
img_msec_1694296202223_2,earth,0.56146499999999999,False,8,8,8,2,1694296202223,2023/9/9 21:50:02,2023/9/8 19:23:25,1.1018171213800088,-20.122191502437371,129.57151625345827,462472.5,1 44878U 19092F   23251.80793083  .00028436  00000+0  74212-3 0  9994,2 44878  97.4735  81.8860 0008002 187.4444 172.6683 15.38746503206633
img_msec_1694296245820_2,bad,0.89151000000000002,False,8,8,8,2,1694296245820,2023/9/9 21:50:46,2023/9/8 19:23:25,1.1023217162874062,-17.360740898359339,128.98513085283435,461700.65625,1 44878U 19092F   23251.80793083  .00028436  00000+0  74212-3 0  9994,2 44878  97.4735  81.8860 0008002 187.4444 172.6683 15.38746503206633
img_msec_1694296281425_2,earth,0.53653600000000001,False,8,8,8,2,1694296281425,2023/9/9 21:51:21,2023/9/8 19:23:25,1.1027338112035068,-15.104736245693296,128.51524115869412,461108.40625,1 44878U 19092F   23251.80793083  .00028436  00000+0  74212-3 0  9994,2 44878  97.4735  81.8860 0008002 187.4444 172.6683 15.38746503206633
img_msec_1694296389424_2,earth,0.86523799999999995,True,8,8,8,2,1694296389424,2023/9/9 21:53:09,2023/9/8 19:23:25,1.1039837996358983,-8.2582809801721595,127.12648611551212,459549.46875,1 44878U 19092F   23251.80793083  .00028436  00000+0  74212-3 0  9994,2 44878  97.4735  81.8860 0008002 187.4444 172.6683 15.38746503206633
img_msec_1694296470061_2,earth,0.93872900000000004,True,8,8,8,2,1694296470061,2023/9/9 21:54:30,2023/9/8 19:23:25,1.1049170982369105,-3.1438827141039787,126.1119161558201,458644.28125,1 44878U 19092F   23251.80793083  .00028436  00000+0  74212-3 0  9994,2 44878  97.4735  81.8860 0008002 187.4444 172.6683 15.38746503206633
img_msec_1694296621582_2,bad,0.90700000000000003,False,8,8,8,2,1694296621582,2023/9/9 21:57:02,2023/9/8 19:23:25,1.1066708135185763,6.4695048091909486,124.21455790628225,457594.90625,1 44878U 19092F   23251.80793083  .00028436  00000+0  74212-3 0  9994,2 44878  97.4735  81.8860 0008002 187.4444 172.6683 15.38746503206633
img_msec_1694296643744_2,bad,0.71857099999999996,False,8,8,8,2,1694296643744,2023/9/9 21:57:24,2023/9/8 19:23:25,1.1069273181419703,7.8757272074016225,123.93467041447346,457513.9375,1 44878U 19092F   23251.80793083  .00028436  00000+0  74212-3 0  9994,2 44878  97.4735  81.8860 0008002 187.4444 172.6683 15.38746503206633
img_msec_1694296678621_2,earth,0.81421399999999999,True,8,8,8,2,1694296678621,2023/9/9 21:57:59,2023/9/8 19:23:25,1.1073309871208039,10.088717036222217,123.49148675998802,457423.53125,1 44878U 19092F   23251.80793083  .00028436  00000+0  74212-3 0  9994,2 44878  97.4735  81.8860 0008002 187.4444 172.6683 15.38746503206633
img_msec_1694296779423_2,bad,0.84971799999999997,False,8,8,8,2,1694296779423,2023/9/9 21:59:39,2023/9/8 19:23:25,1.1084976769416244,16.484022939138377,122.18364213771397,457408.03125,1 44878U 19092F   23251.80793083  .00028436  00000+0  74212-3 0  9994,2 44878  97.4735  81.8860 0008002 187.4444 172.6683 15.38746503206633
img_msec_1694296793663_2,bad,0.84971799999999997,False,8,8,8,2,1694296793663,2023/9/9 21:59:54,2023/9/8 19:23:25,1.1086624917588779,17.387317164419859,121.99463714300138,457433.96875,1 44878U 19092F   23251.80793083  .00028436  00000+0  74212-3 0  9994,2 44878  97.4735  81.8860 0008002 187.4444 172.6683 15.38746503206633
img_msec_1694296808063_2,bad,0.84843800000000003,False,8,8,8,2,1694296808063,2023/9/9 22:00:08,2023/9/8 19:23:25,1.1088291584237595,18.300708116841907,121.8021897329471,457466.9375,1 44878U 19092F   23251.80793083  .00028436  00000+0  74212-3 0  9994,2 44878  97.4735  81.8860 0008002 187.4444 172.6683 15.38746503206633
img_msec_1694296875902_2,earth,0.89994799999999997,True,8,8,8,2,1694296875902,2023/9/9 22:01:16,2023/9/8 19:23:25,1.1096143320319243,22.602815463695745,120.87504619463124,457708.90625,1 44878U 19092F   23251.80793083  .00028436  00000+0  74212-3 0  9994,2 44878  97.4735  81.8860 0008002 187.4444 172.6683 15.38746503206633
img_msec_1694296955103_2,bad,0.77400599999999997,False,8,8,8,2,1694296955103,2023/9/9 22:02:35,2023/9/8 19:23:25,1.1105310102720978,27.622847409304203,119.73889886771298,458154.875,1 44878U 19092F   23251.80793083  .00028436  00000+0  74212-3 0  9994,2 44878  97.4735  81.8860 0008002 187.4444 172.6683 15.38746503206633
img_msec_1694296996463_2,bad,0.72726199999999996,False,8,8,8,2,1694296996463,2023/9/9 22:03:16,2023/9/8 19:23:25,1.1110097139753634,30.242844795671274,119.11620418146126,458447.875,1 44878U 19092F   23251.80793083  .00028436  00000+0  74212-3 0  9994,2 44878  97.4735  81.8860 0008002 187.4444 172.6683 15.38746503206633
img_msec_1694297029101_2,bad,0.76564500000000002,False,8,8,8,2,1694297029101,2023/9/9 22:03:49,2023/9/8 19:23:25,1.11138746861252,32.309393661139502,118.6075599939704,458703.8125,1 44878U 19092F   23251.80793083  .00028436  00000+0  74212-3 0  9994,2 44878  97.4735  81.8860 0008002 187.4444 172.6683 15.38746503206633
img_msec_1694297061021_2,earth,0.86027900000000002,True,8,8,8,2,1694297061021,2023/9/9 22:04:21,2023/9/8 19:23:25,1.1117569130510674,34.329531391197492,118.09327407022512,458972.5,1 44878U 19092F   23251.80793083  .00028436  00000+0  74212-3 0  9994,2 44878  97.4735  81.8860 0008002 187.4444 172.6683 15.38746503206633
img_msec_1694297142861_2,bad,0.53493400000000002,False,8,8,8,2,1694297142861,2023/9/9 22:05:43,2023/9/8 19:23:25,1.1127041352665401,39.503628498819346,116.68248483678065,459726.125,1 44878U 19092F   23251.80793083  .00028436  00000+0  74212-3 0  9994,2 44878  97.4735  81.8860 0008002 187.4444 172.6683 15.38746503206633
img_msec_1694297176941_2,bad,0.65252200000000005,False,8,8,8,2,1694297176941,2023/9/9 22:06:17,2023/9/8 19:23:25,1.1130985797208268,41.655407879845576,116.04749581002289,460059.3125,1 44878U 19092F   23251.80793083  .00028436  00000+0  74212-3 0  9994,2 44878  97.4735  81.8860 0008002 187.4444 172.6683 15.38746503206633
img_msec_1694297209263_2,bad,0.783439,False,8,8,8,2,1694297209263,2023/9/9 22:06:49,2023/9/8 19:23:25,1.1134726769450936,43.69427740370233,115.4138181795858,460381.28125,1 44878U 19092F   23251.80793083  .00028436  00000+0  74212-3 0  9994,2 44878  97.4735  81.8860 0008002 187.4444 172.6683 15.38746503206633
img_msec_1694297240224_2,bad,0.92124499999999998,False,8,8,8,2,1694297240224,2023/9/9 22:07:20,2023/9/8 19:23:25,1.1138310218520928,45.645266298603111,114.77391141662564,460692.375,1 44878U 19092F   23251.80793083  .00028436  00000+0  74212-3 0  9994,2 44878  97.4735  81.8860 0008002 187.4444 172.6683 15.38746503206633
img_msec_1694297269343_2,earth,0.70075299999999996,True,8,8,8,2,1694297269343,2023/9/9 22:07:49,2023/9/8 19:23:25,1.1141680473156157,47.478092920862672,114.13849208795018,460984.96875,1 44878U 19092F   23251.80793083  .00028436  00000+0  74212-3 0  9994,2 44878  97.4735  81.8860 0008002 187.4444 172.6683 15.38746503206633
img_msec_1694297346623_2,bad,0.95266200000000001,False,8,8,8,2,1694297346623,2023/9/9 22:09:07,2023/9/8 19:23:25,1.1150624917572713,52.329969024200004,112.25700036785429,461745.3125,1 44878U 19092F   23251.80793083  .00028436  00000+0  74212-3 0  9994,2 44878  97.4735  81.8860 0008002 187.4444 172.6683 15.38746503206633
img_msec_1694297374062_2,bad,0.94615199999999999,False,8,8,8,2,1694297374062,2023/9/9 22:09:34,2023/9/8 19:23:25,1.1153800727697671,54.047269826837976,111.50454574775065,462004.09375,1 44878U 19092F   23251.80793083  .00028436  00000+0  74212-3 0  9994,2 44878  97.4735  81.8860 0008002 187.4444 172.6683 15.38746503206633
img_msec_1694297401743_2,bad,0.93227499999999996,False,8,8,8,2,1694297401743,2023/9/9 22:10:02,2023/9/8 19:23:25,1.1157004547203542,55.776110234078672,110.68968368920063,462256.40625,1 44878U 19092F   23251.80793083  .00028436  00000+0  74212-3 0  9994,2 44878  97.4735  81.8860 0008002 187.4444 172.6683 15.38746503206633
